ONEWEB-0709             
1 55172U 23004AJ  26114.18622018 -.00000496  00000+0 -14358-2 0  9994
2 55172  87.8919  31.8163 0001873  50.6049 309.5245 13.11416637158790
ONEWEB-0710             
1 55173U 23004AK  26114.21316623  .00000056  00000+0  11203-3 0  9998
2 55173  87.9183  16.5902 0001678  82.6958 277.4365 13.17648840160476
ONEWEB-0711             
1 55174U 23004AL  26114.23370616  .00000172  00000+0  44933-3 0  9998
2 55174  87.8917  31.7933 0001328 100.3387 259.7891 13.11415325158760
ONEWEB-0713             
1 55175U 23004AM  26114.17605070 -.00000454  00000+0 -13175-2 0  9995
2 55175  87.8927  31.8040 0001544  88.3252 271.8053 13.11416176158746
ONEWEB-0715             
1 55176U 23004AN  26114.17096557 -.00000343  00000+0 -10035-2 0  9999
2 55176  87.8941  31.8051 0001427  53.9309 306.1951 13.11415746158781
ONEWEB-0716             
1 55177U 23004AP  26114.20641197 -.00000134  00000+0 -37808-3 0  9996
2 55177  87.9196  16.5912 0001990  75.0895 285.0457 13.17649111160477
ONEWEB-0717             
1 55178U 23004AQ  26114.18953825  .00000005  00000+0 -19439-4 0  9995
2 55178  87.9193  16.5798 0001280  97.0912 263.0365 13.17648537160524
ONEWEB-0719             
1 55179U 23004AR  26114.19966253 -.00000066  00000+0 -20432-3 0  9998
2 55179  87.9198  16.5581 0001964  82.8863 277.2492 13.17648973160472
ONEWEB-0530             
1 55796U 23029A   26114.00004288  .00002297  00000+0  56140-2 0  9991
2 55796  87.9126 285.2887 0001894 109.2592 250.8746 13.20799880153993
ONEWEB-0534             
1 55797U 23029B   26113.98746063  .00000068  00000+0  13561-3 0  9997
2 55797  87.9133 285.2903 0001893  92.4241 267.7109 13.20773342153999
ONEWEB-0556             
1 55798U 23029C   26113.99380349 -.00000014  00000+0 -65707-4 0  9993
2 55798  87.9129 285.2900 0002572 103.2106 256.9315 13.20771490153999
ONEWEB-0562             
1 55799U 23029D   26113.98114772  .00000010  00000+0 -80197-5 0  9994
2 55799  87.9127 285.2732 0002151 117.4731 242.6621 13.20773370153996
ONEWEB-0563             
1 55800U 23029E   26113.97485760  .00000040  00000+0  66803-4 0  9993
2 55800  87.9131 285.3046 0002037  91.1620 268.9746 13.20772314153986
ONEWEB-0564             
1 55801U 23029F   26114.19579751  .00000073  00000+0  14862-3 0  9996
2 55801  87.9131 285.2333 0001842 106.5469 253.5867 13.20773597154024
ONEWEB-0638             
1 55802U 23029G   26113.96885787  .00000337  00000+0  87358-3 0  9993
2 55802  87.8918 300.5778 0002254 103.5292 256.6089 13.14504428152273
ONEWEB-0639             
1 55803U 23029H   26114.12617821 -.00000004  00000+0 -42757-4 0  9993
2 55803  87.9159 315.7580 0002435  65.5298 294.6088 13.19723926151771
ONEWEB-0640             
1 55804U 23029J   26114.20672824  .00000151  00000+0  37384-3 0  9997
2 55804  87.8913 300.5216 0002411  93.1144 267.0262 13.14502233152329
ONEWEB-0641             
1 55805U 23029K   26114.12143204  .00000102  00000+0  22271-3 0  9999
2 55805  87.9152 315.7464 0001844  82.1160 278.0182 13.19723965151788
ONEWEB-0642             
1 55806U 23029L   26114.11668333 -.00000047  00000+0 -14893-3 0  9995
2 55806  87.9170 315.7619 0002103  63.2459 296.8889 13.19723216151771
ONEWEB-0643             
1 55807U 23029M   26114.02436095  .00000016  00000+0  99927-5 0  9991
2 55807  87.8915 300.5447 0001733  67.0549 293.0763 13.14502147152278
ONEWEB-0644             
1 55808U 23029N   26114.11195336  .00000087  00000+0  18516-3 0  9993
2 55808  87.9148 315.7644 0001845  75.8444 284.2894 13.19724369151778
ONEWEB-0645             
1 55809U 23029P   26113.98244294  .00000061  00000+0  12045-3 0  9999
2 55809  87.9154 315.7871 0002223  81.5464 278.5920 13.19724374151755
ONEWEB-0646             
1 55810U 23029Q   26113.99980324  .00000105  00000+0  22992-3 0  9994
2 55810  87.9148 315.7838 0001851  76.9046 283.2294 13.19723135151743
ONEWEB-0648             
1 55811U 23029R   26113.99264897 -.00000103  00000+0 -31204-3 0  9991
2 55811  87.8932 300.5190 0002478  74.5106 285.6298 13.14502239152278
ONEWEB-0649             
1 55812U 23029S   26114.10090167 -.00000073  00000+0 -21538-3 0  9998
2 55812  87.9158 315.7603 0001989  82.7457 277.3902 13.19724868151798
ONEWEB-0650             
1 55813U 23029T   26114.09616066 -.00000046  00000+0 -14611-3 0  9993
2 55813  87.9157 315.7639 0001903  74.7475 285.3869 13.19724531151769
ONEWEB-0652             
1 55814U 23029U   26113.97361626  .00000180  00000+0  45093-3 0  9994
2 55814  87.8909 300.5341 0001656  97.6126 262.5192 13.14502196152244
ONEWEB-0653             
1 55815U 23029V   26113.95775937  .00000144  00000+0  35483-3 0  9999
2 55815  87.8919 300.5313 0001729  89.3311 270.8017 13.14502259152271
ONEWEB-0654             
1 55816U 23029W   26114.02911841  .00000140  00000+0  34271-3 0  9995
2 55816  87.8920 300.5146 0001609 101.7771 258.3539 13.14502891152300
ONEWEB-0656             
1 55817U 23029X   26113.96221335  .00000014  00000+0  24297-5 0  9999
2 55817  87.9140 285.2499 0001728 108.0941 252.0381 13.20772096153992
ONEWEB-0657             
1 55818U 23029Y   26114.09142442 -.00000025  00000+0 -93908-4 0  9994
2 55818  87.9154 315.7641 0001080  93.9859 266.1397 13.19724270151773
ONEWEB-0658             
1 55819U 23029Z   26114.08668464 -.00000039  00000+0 -12862-3 0  9995
2 55819  87.9170 315.7356 0001835  76.0183 284.1153 13.19724219151789
ONEWEB-0660             
1 55820U 23029AA  26114.08302907 -.00000242  00000+0 -68817-3 0  9991
2 55820  87.8924 300.4946 0002132  88.7543 271.3831 13.14503401152295
ONEWEB-0661             
1 55821U 23029AB  26113.43286454  .00000303  00000+0  78370-3 0  9999
2 55821  87.8917 300.6761 0002088  92.0960 268.0409 13.14503008152192
ONEWEB-0662             
1 55822U 23029AC  26114.00057026 -.00000177  00000+0 -51144-3 0  9996
2 55822  87.8915 300.5693 0002056  86.4878 273.6487 13.14502993152318
ONEWEB-0663             
1 55823U 23029AD  26114.00016761 -.00000111  00000+0 -30469-3 0  9993
2 55823  87.9144 285.3156 0002130  85.7263 274.4114 13.20865370153990
ONEWEB-0664             
1 55824U 23029AE  26114.25263839  .00000053  00000+0  98927-4 0  9998
2 55824  87.9128 285.2524 0002224 100.3674 259.7710 13.20769561154023
ONEWEB-0665             
1 55825U 23029AF  26113.96251630  .00000181  00000+0  45345-3 0  9999
2 55825  87.8916 300.5508 0002035  85.9217 274.2146 13.14501998152284
ONEWEB-0666             
1 55826U 23029AG  26113.94327291 -.00000029  00000+0 -10278-3 0  9995
2 55826  87.9127 285.3038 0001141 105.6501 254.4758 13.20769703153996
ONEWEB-0667             
1 55827U 23029AH  26114.01271453 -.00000027  00000+0 -97960-4 0  9995
2 55827  87.9146 285.2387 0001938  92.6535 267.4820 13.20773975153990
ONEWEB-0669             
1 55828U 23029AJ  26114.00798418 -.00000034  00000+0 -11495-3 0  9996
2 55828  87.9126 285.2567 0001905 112.6374 247.4961 13.20769832153998
ONEWEB-0670             
1 55829U 23029AK  26114.01642920 -.00000068  00000+0 -21874-3 0  9993
2 55829  87.8917 300.5576 0002093  93.7575 266.3794 13.14502974152312
ONEWEB-0671             
1 55830U 23029AL  26114.00612778  .00000000  00000+0 -31891-4 0  9998
2 55830  87.9157 315.7822 0001982  87.0627 273.0733 13.19724583151755
ONEWEB-0672             
1 55831U 23029AM  26114.00325990  .00000020  00000+0  16813-4 0  9994
2 55831  87.9142 285.2485 0001574 103.7102 256.4207 13.20770092153994
ONEWEB-0673             
1 55832U 23029AN  26113.98321433  .00000075  00000+0  15447-3 0  9990
2 55832  87.9166 315.7734 0001887  86.7289 273.4059 13.19725532151753
ONEWEB-0674             
1 55833U 23029AP  26113.98471886  .00000022  00000+0  23582-4 0  9991
2 55833  87.8914 300.5413 0002161  97.3838 262.7537 13.14502047152295
ONEWEB-0675             
1 55834U 23029AQ  26113.99822369  .00000084  00000+0  17862-3 0  9990
2 55834  87.9153 315.7852 0001497  83.9111 276.2192 13.19723268151777
ONEWEB-0720             
1 55835U 23029AR  26113.99032625  .00000062  00000+0  12132-3 0  9990
2 55835  87.9153 315.7873 0001961  79.7835 280.3519 13.19724019151698
ONEWEB-0537             
1 56046U 23043A   26114.31275913  .00000048  00000+0  92788-4 0  9997
2 56046  87.9078 239.4716 0001676 106.2525 253.8791 13.16594040151875
ONEWEB-0538             
1 56047U 23043B   26114.30641521  .00000025  00000+0  32312-4 0  9991
2 56047  87.9082 239.4748 0001656  95.9005 264.2315 13.16591363151885
ONEWEB-0546             
1 56048U 23043C   26114.29375689 -.00000039  00000+0 -13560-3 0  9999
2 56048  87.9086 239.4765 0001491 121.2939 238.8338 13.16593745151872
ONEWEB-0547             
1 56049U 23043D   26113.67101018  .00000066  00000+0  12784-3 0  9999
2 56049  87.9230 254.8272 0001861  93.4325 266.7022 13.21825083151024
ONEWEB-0548             
1 56050U 23043E   26114.31827452 -.00000193  00000+0 -53824-3 0  9993
2 56050  87.9078 239.4696 0002313 108.4941 251.6441 13.16594012151879
ONEWEB-0549             
1 56051U 23043F   26113.66513526  .00000035  00000+0  53577-4 0  9994
2 56051  87.9211 254.8379 0001717  91.6096 268.5235 13.21827562151029
ONEWEB-0550             
1 56052U 23043G   26113.34889411  .00000072  00000+0  14349-3 0  9993
2 56052  87.9212 254.8974 0002110 104.7280 255.4088 13.21826891150980
ONEWEB-0551             
1 56053U 23043H   26113.92636313 -.00000159  00000+0 -45774-3 0  9993
2 56053  87.8944 270.0492 0001724  85.9914 274.1413 13.15548044149264
ONEWEB-0552             
1 56054U 23043J   26113.94941576  .00000251  00000+0  57662-3 0  9996
2 56054  87.9208 254.7843 0002020  94.9232 265.2132 13.21828550151061
ONEWEB-0553             
1 56055U 23043K   26114.30009154  .00000038  00000+0  64818-4 0  9990
2 56055  87.9074 239.4768 0001768 114.5779 245.5537 13.16594141151882
ONEWEB-0554             
1 56056U 23043L   26114.28742820  .00000007  00000+0 -14600-4 0  9993
2 56056  87.9078 239.4887 0002103 108.3572 251.7787 13.16593452151863
